[{"OBJECT_NAME":"STARLINK-35794","OBJECT_ID":"2025-298L","EPOCH":"2026-03-09T22:40:21.040608","MEAN_MOTION":14.99140238,"ECCENTRICITY":0.000246,"INCLINATION":70.0018,"RA_OF_ASC_NODE":13.8954,"ARG_OF_PERICENTER":239.7803,"MEAN_ANOMALY":120.3113,"EPHEMERIS_TYPE":0,"CLASSIFICATION_TYPE":"U","NORAD_CAT_ID":67085,"ELEMENT_SET_NO":999,"REV_AT_EPOCH":1325,"BSTAR":0.00057556911,"MEAN_MOTION_DOT":6.926e-5,"MEAN_MOTION_DDOT":0},{"OBJECT_NAME":"CZ-6A DEB","OBJECT_ID":"2024-140JB","EPOCH":"2026-03-09T22:07:15.667968","MEAN_MOTION":14.69602052,"ECCENTRICITY":0.01342116,"INCLINATION":88.72,"RA_OF_ASC_NODE":261.6605,"ARG_OF_PERICENTER":139.244,"MEAN_ANOMALY":221.8914,"EPHEMERIS_TYPE":0,"CLASSIFICATION_TYPE":"U","NORAD_CAT_ID":60848,"ELEMENT_SET_NO":999,"REV_AT_EPOCH":8242,"BSTAR":0.0030457487,"MEAN_MOTION_DOT":0.00020848,"MEAN_MOTION_DDOT":0}]
